{
  "norad_id": 67590,
  "name": "STARLINK-36376",
  "history": [
    {
      "epoch": "2026-05-04T17:30:15.861600Z",
      "apogee_km": 466.03362239820035,
      "perigee_km": 465.0084424249444,
      "latitude_deg": -5.9754326922333915e-06,
      "longitude_deg": 64.9824051403018,
      "height_km": 468.12660457483236,
      "semi_major_axis_km": 6843.658032411572,
      "eccentricity": 7.49e-05,
      "inclination_deg": 97.2831,
      "raan_deg": 190.163,
      "arg_perigee_deg": 9.0567,
      "mean_anomaly_deg": 351.0689,
      "mean_motion_rev_day": 15.33452442
    }
  ]
}